OBJECT_NAME,OBJECT_ID,EPOCH,MEAN_MOTION,ECCENTRICITY,INCLINATION,RA_OF_ASC_NODE,ARG_OF_PERICENTER,MEAN_ANOMALY,EPHEMERIS_TYPE,CLASSIFICATION_TYPE,NORAD_CAT_ID,ELEMENT_SET_NO,REV_AT_EPOCH,BSTAR,MEAN_MOTION_DOT,MEAN_MOTION_DDOT
CUBEBUG-2 (LO-74),2013-066AA,2026-07-09T02:24:20.780064,14.93942821,.00561801,97.8908,139.1745,316.1471,43.5295,0,U,39440,999,68026,.1629533E-3,.1725E-4,0
FUNCUBE-1 (AO-73),2013-066AE,2026-07-08T20:44:00.542688,15.09765418,.00376927,97.8287,161.7669,128.2905,232.1724,0,U,39444,999,68293,.30571622E-3,.4949E-4,0
UWE-3,2013-066AG,2026-07-08T08:04:01.539552,14.97171964,.00475215,97.8696,145.5560,248.4998,111.1154,0,U,39446,999,68074,.1520418E-3,.1733E-4,0
UNISAT-6,2014-033C,2026-07-09T06:03:44.100864,14.88352095,.00446751,97.7900,342.5803,357.5739,2.5254,0,U,40012,999,64944,.17048726E-3,.155E-4,0
DUCHIFAT-1,2014-033M,2026-07-09T02:48:14.645952,15.69759950,.0001719,98.0435,252.4424,258.2829,101.8238,0,U,40021,999,65918,.8115863E-3,.97268E-3,0
QB50P1,2014-033R,2026-07-08T23:06:16.072128,15.18602701,.00099759,98.0972,202.6398,143.0121,217.1801,0,U,40025,999,65633,.25681755E-3,.5242E-4,0
LILACSAT-2,2015-049K,2026-07-09T06:15:51.115392,15.52208169,.00079535,97.4632,227.9487,159.2381,200.9196,0,U,40908,999,59917,.24850787E-3,.14987E-3,0
FOX-1A (AO-85),2015-058D,2026-07-09T00:24:29.327904,14.91065127,.01318917,64.7733,211.1378,48.1465,313.0815,0,U,40967,999,11682,.15541655E-3,.1641E-4,0
CAS-2T & KS-1Q,2016-066G,2026-07-09T03:01:32.902464,14.44761366,.03425416,98.3814,265.6112,63.1325,300.4448,0,U,41847,999,50796,.13108027E-3,.881E-5,0
RADFXSAT (FOX-1B),2017-073E,2026-07-08T10:32:46.606848,15.13003288,.0148105,97.4685,56.2209,255.0605,103.4188,0,U,43017,999,46860,.1974387E-3,.4488E-4,0
DIWATA-2B,2018-084H,2026-07-09T07:25:41.694240,15.00547321,.00130676,98.1220,27.4852,102.3642,257.9044,0,U,43678,999,41953,.10275846E-3,.1232E-4,0
ES'HAIL 2,2018-090A,2026-07-09T06:55:54.473952,1.00273126,.00023803,0.0156,342.6577,173.8878,260.4812,0,U,43700,999,2789,0,.158E-5,0
FOX-1CLIFF (AO-95),2018-099N,2026-07-09T02:19:07.402944,15.27186791,.00069598,97.4375,250.2670,265.8117,94.2326,0,U,43770,999,41656,.28188115E-3,.7443E-4,0
ITASAT,2018-099AE,2026-07-09T02:05:14.286624,15.19333187,.001072,97.4019,241.1634,275.1562,84.8449,0,U,43786,999,41623,.21430012E-3,.4466E-4,0
JY1SAT (JO-97),2018-099AX,2026-07-08T16:29:49.927488,15.34370872,.00062391,97.4119,252.6045,178.6652,181.4609,0,U,43803,999,41692,.37201891E-3,.12315E-3,0
UWE-4,2018-111E,2026-07-09T06:35:43.813824,15.47549208,.00052707,97.5841,119.7053,218.3666,141.7210,0,U,43880,999,41419,.53767723E-3,.2764E-3,0
TIANYAN 01,2019-093C,2026-07-09T06:10:59.871360,14.86553445,.00140841,97.7519,261.9511,20.5878,339.5903,0,U,44881,999,35469,-.10575624E-4,-.147E-5,0
RS-44 & BREEZE-KM R/B,2019-096E,2026-07-09T06:52:52.656384,12.79748975,.02185857,82.5237,325.0196,92.7397,269.8743,0,U,44909,999,30517,.22277629E-4,.19E-6,0
SALSAT,2020-068K,2026-07-09T06:02:33.013536,15.30117525,.00085936,97.8858,194.6644,215.0810,144.9864,0,U,46495,999,31873,.19084228E-3,.5482E-4,0
XW-3 (CAS-9),2021-131B,2026-07-09T08:06:44.090784,14.41378314,.00049085,98.4979,282.6086,45.3257,314.8331,0,U,50466,999,23830,.65924137E-4,.169E-5,0
GREENCUBE (IO-117),2022-080E,2026-07-09T06:49:55.485408,6.42583278,.00090276,70.1425,290.5613,284.8400,75.1260,0,U,53109,999,9348,0,-.3E-7,0
UMKA 1 (RS40S),2023-091G,2026-07-09T06:22:06.017952,15.21078552,.00135938,97.5041,248.8794,48.8205,311.4200,0,U,57172,999,16736,.18437462E-3,.4036E-4,0
CUBESX-HSE 3 (RS42S),2023-091N,2026-07-09T06:11:33.828288,15.31786723,.00103132,97.5082,256.1308,23.0199,337.1502,0,U,57178,999,16780,.33067122E-3,.10088E-3,0
MONITOR-3 (RS58S),2023-091Q,2026-07-09T03:15:13.223808,15.28293287,.00116467,97.5073,253.7474,30.6666,329.5252,0,U,57180,999,16764,.26306345E-3,.7188E-4,0
MONITOR-4 (RS57S),2023-091S,2026-07-09T07:26:08.331360,15.28383843,.00116111,97.5067,253.8953,30.4219,329.7692,0,U,57182,999,16767,.28964743E-3,.7944E-4,0
MONITOR-2 (RS39S),2023-091U,2026-07-09T07:33:06.444288,15.19120550,.00119688,97.5062,248.4556,43.1965,317.0206,0,U,57184,999,16731,.1656955E-3,.3415E-4,0
SVYATOBOR 1 (RS60S),2023-091X,2026-07-09T06:38:42.179712,15.26998848,.00093641,97.5080,254.2198,25.1520,335.0172,0,U,57187,999,16768,.24148471E-3,.6331E-4,0
VIZARD-METEO (RS38S),2023-091Z,2026-07-09T07:00:22.653504,15.36748174,.00062233,97.5082,260.2293,3.5675,356.5612,0,U,57189,999,16808,.35376157E-3,.12631E-3,0
POLYTECH-UNIVERSE 3 (RS46S),2023-091AB,2026-07-09T06:33:07.180992,15.19331050,.00165499,97.5037,247.9183,56.9543,303.3279,0,U,57191,999,16730,.15524511E-3,.3221E-4,0
UTMN 2 (RS27S),2023-091AP,2026-07-09T06:19:43.056192,15.32606712,.00073692,97.5078,257.7972,12.0469,348.0947,0,U,57203,999,16792,.31265363E-3,.9774E-4,0
