CUBEBUG-2 (LO-74)
1 39440U 13066AA  26190.10024051  .00001725  00000-0  16295-3 0  9998
2 39440  97.8908 139.1745 0056180 316.1471  43.5295 14.93942821680269
FUNCUBE-1 (AO-73)
1 39444U 13066AE  26189.86389517  .00004949  00000-0  30572-3 0  9999
2 39444  97.8287 161.7669 0037693 128.2905 232.1724 15.09765418682933
UWE-3
1 39446U 13066AG  26189.33612893  .00001733  00000-0  15204-3 0  9992
2 39446  97.8696 145.5560 0047522 248.4998 111.1154 14.97171964680741
UNISAT-6
1 40012U 14033C   26190.25259376  .00001550  00000-0  17049-3 0  9990
2 40012  97.7900 342.5803 0044675 357.5739   2.5254 14.88352095649441
DUCHIFAT-1
1 40021U 14033M   26190.11683618  .00097268  00000-0  81159-3 0  9999
2 40021  98.0435 252.4424 0001719 258.2829 101.8238 15.69759950659183
LILACSAT-2
1 40908U 15049K   26190.26100828  .00014987  00000-0  24851-3 0  9997
2 40908  97.4632 227.9487 0007953 159.2381 200.9196 15.52208169599173
CAS-2T & KS-1Q
1 41847U 16066G   26190.12607526  .00000881  00000-0  13108-3 0  9993
2 41847  98.3814 265.6112 0342542  63.1325 300.4448 14.44761366507964
FOX-1B (AO-91)
1 43017U 17073E   26189.43942832  .00004488  00000-0  19744-3 0  9996
2 43017  97.4685  56.2209 0148105 255.0605 103.4188 15.13003288468602
FUNCUBE-3 (EO-79)/QB50P1
1 40025U 14033R   26189.96268602  .00005242  00000-0  25682-3 0  9996
2 40025  98.0972 202.6398 0009976 143.0121 217.1801 15.18602701656335
FOX-1A (AO-85)
1 40967U 15058D   26190.01700611  .00001641  00000-0  15542-3 0  9991
2 40967  64.7733 211.1378 0131892  48.1465 313.0815 14.91065127116828
DIWATA-2B (PO-101)
1 43678U 18084H   26190.30951035  .00001232  00000-0  10276-3 0  9990
2 43678  98.1220  27.4852 0013068 102.3642 257.9044 15.00547321419537
ESHAIL-2
1 43700U 18090A   26190.28882493  .00000158  00000-0  00000-0 0  9998
2 43700   0.0156 342.6577 0002380 173.8878 260.4812  1.00273126 27898
ITASAT-1
1 43786U 18099AE  26190.08697091  .00004466  00000-0  21430-3 0  9996
2 43786  97.4019 241.1634 0010720 275.1562  84.8449 15.19333187416233
FOX-1CLIFF (AO-95)
1 43770U 18099N   26190.09661346  .00007443  00000-0  28188-3 0  9999
2 43770  97.4375 250.2670 0006960 265.8117  94.2326 15.27186791416566
JY1SAT (JO-97)
1 43803U 18099AX  26189.68738342  .00012315  00000-0  37202-3 0  9991
2 43803  97.4119 252.6045 0006239 178.6652 181.4609 15.34370872416921
UWE-4
1 43880U 18111E   26190.27481266  .00027640  00000-0  53768-3 0  9990
2 43880  97.5841 119.7053 0005271 218.3666 141.7210 15.47549208414192
CAS-6 (TO-108)
1 44881U 19093C   26190.25763740 -.00000147  00000-0 -10576-4 0  9996
2 44881  97.7519 261.9511 0014084  20.5878 339.5903 14.86553445354691
DOSAAF-85 (RS-44)
1 44909U 19096E   26190.28672056  .00000019  00000-0  22278-4 0  9990
2 44909  82.5237 325.0196 0218586  92.7397 269.8743 12.79748975305172
SALSAT (TUBSAT 22)
1 46495U 20068K   26190.25177099  .00005482  00000-0  19084-3 0  9996
2 46495  97.8858 194.6644 0008594 215.0810 144.9864 15.30117525318730
CAMSAT XW-3 (CAS-9)
1 50466U 21131B   26190.33801031  .00000169  00000-0  65924-4 0  9992
2 50466  98.4979 282.6086 0004909  45.3257 314.8331 14.41378314238304
ROBUSTA 1F (MTCUBE-2)
1 53109U 22080E   26190.28466997 -.00000003  00000-0  00000-0 0  9993
2 53109  70.1425 290.5613 0009028 284.8400  75.1260  6.42583278 93480
UMKA-1 (RS40S)
1 57172U 23091G   26190.26534743  .00004036  00000-0  18437-3 0  9998
2 57172  97.5041 248.8794 0013594  48.8205 311.4200 15.21078552167361
CUBESX-HSE-3 (RS42S)
1 57178U 23091N   26190.25803042  .00010088  00000-0  33067-3 0  9994
2 57178  97.5082 256.1308 0010313  23.0199 337.1502 15.31786723167804
MONITOR-3 (RS58S)
1 57180U 23091Q   26190.13556972  .00007188  00000-0  26306-3 0  9996
2 57180  97.5073 253.7474 0011647  30.6666 329.5252 15.28293287167641
MONITOR-4 (RS57S)
1 57182U 23091S   26190.30981865  .00007944  00000-0  28965-3 0  9993
2 57182  97.5067 253.8953 0011611  30.4219 329.7692 15.28383843167673
MONITOR-2 (RS39S)
1 57184U 23091U   26190.31465792  .00003415  00000-0  16570-3 0  9990
2 57184  97.5062 248.4556 0011969  43.1965 317.0206 15.19120550167310
SVYATOBOR-1 (RS60S)
1 57187U 23091X   26190.27687708  .00006331  00000-0  24148-3 0  9991
2 57187  97.5080 254.2198 0009364  25.1520 335.0172 15.26998848167686
VIZARD-METEO (RS38S)
1 57189U 23091Z   26190.29192886  .00012631  00000-0  35376-3 0  9998
2 57189  97.5082 260.2293 0006223   3.5675 356.5612 15.36748174168083
UTMN-2 (RS27S)
1 57203U 23091AP  26190.26369278  .00009774  00000-0  31265-3 0  9990
2 57203  97.5078 257.7972 0007369  12.0469 348.0947 15.32606712167924
POLYTECH UNIVERSE-3 (RS46S)
1 57191U 23091AB  26190.27299978  .00003221  00000-0  15525-3 0  9998
2 57191  97.5037 247.9183 0016550  56.9543 303.3279 15.19331050167301
